COSMOS 2361             
1 25590U 98076A   24196.58145192  .00000102  00000+0  94577-4 0  9996
2 25590  82.9348   5.7206 0030144 260.5636 166.0554 13.73125252280274
COSMOS 2378             
1 26818U 01023A   24196.62390326  .00000071  00000+0  58962-4 0  9995
2 26818  82.9266  22.3115 0032461 201.9984 226.5792 13.74054391158355
COSMOS 2389             
1 27436U 02026A   24196.45137538  .00000093  00000+0  80748-4 0  9992
2 27436  82.9527 329.0913 0047555  61.6635   0.0207 13.75070141110535
COSMOS 2398             
1 27818U 03023A   24196.57674743  .00000080  00000+0  70090-4 0  9996
2 27818  82.9493 293.0451 0032708 106.0889 266.0219 13.72302115 57372
COSMOS 2407             
1 28380U 04028A   24196.57332319  .00000075  00000+0  60446-4 0  9995
2 28380  82.9585 235.1204 0040422  58.7878  52.3425 13.76218237  3231
COSMOS 2414             
1 28521U 05002A   24196.54842895  .00000108  00000+0  77284-4 0  9992
2 28521  82.9479 215.0332 0040469 170.8384 189.3527 13.87782430986381
COSMOS 2429             
1 32052U 07038A   24196.54386980  .00000089  00000+0  76224-4 0  9996
2 32052  82.9813   3.7248 0039255  39.2978 321.1015 13.75060121845085
COSMOS 2454             
1 35635U 09039A   24196.52097147  .00000116  00000+0  81442-4 0  9990
2 35635  82.9550 199.9952 0020686 108.4481   3.8185 13.89811316759798
COSMOS 2463             
1 36519U 10017A   24196.63605206  .00000070  00000+0  61669-4 0  9991
2 36519  82.9593  45.8870 0034850 280.0083 141.3089 13.71565716711620
